$$SOE
2460742.500000000, A.D. 2025-Mar-08 00:00:00.0000, 4.146413391310495E+09, 3.865981727863815E+09, 1.555113516780589E+08,
2460749.500000000, A.D. 2025-Mar-15 00:00:00.0000, 4.144251297567296E+09, 3.868224387911024E+09, 1.552984246782613E+08,
2460756.500000000, A.D. 2025-Mar-22 00:00:00.0000, 4.142088103240481E+09, 3.870465933587482E+09, 1.550854560136228E+08,
2460763.500000000, A.D. 2025-Mar-29 00:00:00.0000, 4.139923810094644E+09, 3.872706368717899E+09, 1.548724458555458E+08,
2460770.500000000, A.D. 2025-Apr-05 00:00:00.0000, 4.137758418696589E+09, 3.874945696489364E+09, 1.546593944117811E+08,
2460777.500000000, A.D. 2025-Apr-12 00:00:00.0000, 4.135591929017463E+09, 3.877183919490852E+09, 1.544463018815708E+08,
2460784.500000000, A.D. 2025-Apr-19 00:00:00.0000, 4.133424340616296E+09, 3.879421039859585E+09, 1.542331684580846E+08,
2460791.500000000, A.D. 2025-Apr-26 00:00:00.0000, 4.131255652676648E+09, 3.881657059331551E+09, 1.540199943363655E+08,
2460798.500000000, A.D. 2025-May-03 00:00:00.0000, 4.129085864010000E+09, 3.883891979215741E+09, 1.538067797177103E+08,
2460805.500000000, A.D. 2025-May-10 00:00:00.0000, 4.126914973054504E+09, 3.886125800301111E+09, 1.535935248083913E+08,
2460812.500000000, A.D. 2025-May-17 00:00:00.0000, 4.124742977905814E+09, 3.888358522655577E+09, 1.533802298058541E+08,
2460819.500000000, A.D. 2025-May-24 00:00:00.0000, 4.122569876553919E+09, 3.890590145262837E+09, 1.531668948519096E+08,
2460826.500000000, A.D. 2025-May-31 00:00:00.0000, 4.120395667743758E+09, 3.892820665808273E+09, 1.529535199399548E+08,
2460833.500000000, A.D. 2025-Jun-07 00:00:00.0000, 4.118220352058670E+09, 3.895050081818934E+09, 1.527401049114318E+08,
2460840.500000000, A.D. 2025-Jun-14 00:00:00.0000, 4.116043930862120E+09, 3.897278392490948E+09, 1.525266497039223E+08,
2460847.500000000, A.D. 2025-Jun-21 00:00:00.0000, 4.113866404314490E+09, 3.899505597933188E+09, 1.523131544719439E+08,
2460854.500000000, A.D. 2025-Jun-28 00:00:00.0000, 4.111687771593104E+09, 3.901731697592059E+09, 1.520996194377789E+08,
2460861.500000000, A.D. 2025-Jul-05 00:00:00.0000, 4.109508031798780E+09, 3.903956690014007E+09, 1.518860447877297E+08,
2460868.500000000, A.D. 2025-Jul-12 00:00:00.0000, 4.107327184357917E+09, 3.906180573140585E+09, 1.516724306572762E+08,
2460875.500000000, A.D. 2025-Jul-19 00:00:00.0000, 4.105145229109663E+09, 3.908403344561162E+09, 1.514587771408269E+08,
2460882.500000000, A.D. 2025-Jul-26 00:00:00.0000, 4.102962166288124E+09, 3.910625001666816E+09, 1.512450843022697E+08,
2460889.500000000, A.D. 2025-Aug-02 00:00:00.0000, 4.100777996464978E+09, 3.912845541727268E+09, 1.510313521821997E+08,
2460896.500000000, A.D. 2025-Aug-09 00:00:00.0000, 4.098592720475919E+09, 3.915064961876420E+09, 1.508175807986290E+08,
2460903.500000000, A.D. 2025-Aug-16 00:00:00.0000, 4.096406339407882E+09, 3.917283258943558E+09, 1.506037701291234E+08,
2460910.500000000, A.D. 2025-Aug-23 00:00:00.0000, 4.094218854939657E+09, 3.919500429146960E+09, 1.503899200490859E+08,
2460917.500000000, A.D. 2025-Aug-30 00:00:00.0000, 4.092030270364851E+09, 3.921716468364222E+09, 1.501760302545984E+08,
2460924.500000000, A.D. 2025-Sep-06 00:00:00.0000, 4.089840590879052E+09, 3.923931373979727E+09, 1.499621003818953E+08,
2460931.500000000, A.D. 2025-Sep-13 00:00:00.0000, 4.087649821460449E+09, 3.926145145826569E+09, 1.497481302740498E+08,
2460938.500000000, A.D. 2025-Sep-20 00:00:00.0000, 4.085457965617132E+09, 3.928357784578630E+09, 1.495341199605179E+08,
2460945.500000000, A.D. 2025-Sep-27 00:00:00.0000, 4.083265026059633E+09, 3.930569290704581E+09, 1.493200695069580E+08,
2460952.500000000, A.D. 2025-Oct-04 00:00:00.0000, 4.081071005282004E+09, 3.932779664523170E+09, 1.491059789645243E+08,
2460959.500000000, A.D. 2025-Oct-11 00:00:00.0000, 4.078875905677782E+09, 3.934988906417001E+09, 1.488918483759670E+08,
2460966.500000000, A.D. 2025-Oct-18 00:00:00.0000, 4.076679729474509E+09, 3.937197016930665E+09, 1.486776777901199E+08,
2460973.500000000, A.D. 2025-Oct-25 00:00:00.0000, 4.074482478626336E+09, 3.939403996764516E+09, 1.484634672728479E+08,
2460980.500000000, A.D. 2025-Nov-01 00:00:00.0000, 4.072284154704113E+09, 3.941609846680037E+09, 1.482492169120073E+08,
2460987.500000000, A.D. 2025-Nov-08 00:00:00.0000, 4.070084758817479E+09, 3.943814567285783E+09, 1.480349268105223E+08,
2460994.500000000, A.D. 2025-Nov-15 00:00:00.0000, 4.067884291716758E+09, 3.946018158645856E+09, 1.478205970490286E+08,
2461001.500000000, A.D. 2025-Nov-22 00:00:00.0000, 4.065682754477304E+09, 3.948220619931444E+09, 1.476062275989361E+08,
2461008.500000000, A.D. 2025-Nov-29 00:00:00.0000, 4.063480149613010E+09, 3.950421950250872E+09, 1.473918182924898E+08,
2461015.500000000, A.D. 2025-Dec-06 00:00:00.0000, 4.061276480341530E+09, 3.952622150522535E+09, 1.471773690474055E+08,
2461022.500000000, A.D. 2025-Dec-13 00:00:00.0000, 4.059071748434806E+09, 3.954821223020757E+09, 1.469628800307148E+08,
2461029.500000000, A.D. 2025-Dec-20 00:00:00.0000, 4.056865954148076E+09, 3.957019169618073E+09, 1.467483515249097E+08,
2461036.500000000, A.D. 2025-Dec-27 00:00:00.0000, 4.054659097153526E+09, 3.959215991315670E+09, 1.465337838065915E+08,
2461043.500000000, A.D. 2026-Jan-03 00:00:00.0000, 4.052451177019381E+09, 3.961411688446991E+09, 1.463191771211185E+08,
2461050.500000000, A.D. 2026-Jan-10 00:00:00.0000, 4.050242193344173E+09, 3.963606260876260E+09, 1.461045316877515E+08,
2461057.500000000, A.D. 2026-Jan-17 00:00:00.0000, 4.048032145778775E+09, 3.965799708101199E+09, 1.458898477065451E+08,
2461064.500000000, A.D. 2026-Jan-24 00:00:00.0000, 4.045821034014115E+09, 3.967992029283473E+09, 1.456751253617785E+08,
2461071.500000000, A.D. 2026-Jan-31 00:00:00.0000, 4.043608857758058E+09, 3.970183223200397E+09, 1.454603648192792E+08,
2461078.500000000, A.D. 2026-Feb-07 00:00:00.0000, 4.041395616762935E+09, 3.972373288061468E+09, 1.452455662074189E+08,
2461085.500000000, A.D. 2026-Feb-14 00:00:00.0000, 4.039181311156807E+09, 3.974562221175322E+09, 1.450307295574348E+08,
2461092.500000000, A.D. 2026-Feb-21 00:00:00.0000, 4.036965942466014E+09, 3.976750019044947E+09, 1.448158547147846E+08,
2461099.500000000, A.D. 2026-Feb-28 00:00:00.0000, 4.034749514244158E+09, 3.978936679045225E+09, 1.446009414154007E+08,
2461106.500000000, A.D. 2026-Mar-07 00:00:00.0000, 4.032532030249004E+09, 3.981122200733182E+09, 1.443859895563648E+08,
2461113.500000000, A.D. 2026-Mar-14 00:00:00.0000, 4.030313492942965E+09, 3.983306584458392E+09, 1.441709992158718E+08,
2461120.500000000, A.D. 2026-Mar-21 00:00:00.0000, 4.028093904100087E+09, 3.985489830171553E+09, 1.439559704958951E+08,
2461127.500000000, A.D. 2026-Mar-28 00:00:00.0000, 4.025873265510130E+09, 3.987671937459946E+09, 1.437409034560330E+08,
2461134.500000000, A.D. 2026-Apr-04 00:00:00.0000, 4.023651579176012E+09, 3.989852905844138E+09, 1.435257981151543E+08,
2461141.500000000, A.D. 2026-Apr-11 00:00:00.0000, 4.021428847278545E+09, 3.992032734975927E+09, 1.433106544664872E+08,
2461148.500000000, A.D. 2026-Apr-18 00:00:00.0000, 4.019205072067887E+09, 3.994211424730871E+09, 1.430954724911928E+08,
2461155.500000000, A.D. 2026-Apr-25 00:00:00.0000, 4.016980255727741E+09, 3.996388975210052E+09, 1.428802521676285E+08,
2461162.500000000, A.D. 2026-May-02 00:00:00.0000, 4.014754400243352E+09, 3.998565386621462E+09, 1.426649934712532E+08,
2461169.500000000, A.D. 2026-May-09 00:00:00.0000, 4.012527507398273E+09, 4.000740658974806E+09, 1.424496963484991E+08,
2461176.500000000, A.D. 2026-May-16 00:00:00.0000, 4.010299579278232E+09, 4.002914791728058E+09, 1.422343606413817E+08,
2461183.500000000, A.D. 2026-May-23 00:00:00.0000, 4.008070619334207E+09, 4.005087784408205E+09, 1.420189860417125E+08,
2461190.500000000, A.D. 2026-May-30 00:00:00.0000, 4.005840631926489E+09, 4.007259638525756E+09, 1.418035722916729E+08,
2461197.500000000, A.D. 2026-Jun-06 00:00:00.0000, 4.003609620032500E+09, 4.009430357509477E+09, 1.415881193922522E+08,
2461204.500000000, A.D. 2026-Jun-13 00:00:00.0000, 4.001377584784413E+09, 4.011599944860319E+09, 1.413726274994454E+08,
2461211.500000000, A.D. 2026-Jun-20 00:00:00.0000, 3.999144526335535E+09, 4.013768403450696E+09, 1.411570967930877E+08,
2461218.500000000, A.D. 2026-Jun-27 00:00:00.0000, 3.996910444357107E+09, 4.015935735629257E+09, 1.409415274460833E+08,
2461225.500000000, A.D. 2026-Jul-04 00:00:00.0000, 3.994675338165402E+09, 4.018101943356322E+09, 1.407259196304238E+08,
2461232.500000000, A.D. 2026-Jul-11 00:00:00.0000, 3.992439206733036E+09, 4.020267028238103E+09, 1.405102735256650E+08,
2461239.500000000, A.D. 2026-Jul-18 00:00:00.0000, 3.990202048677199E+09, 4.022430991485518E+09, 1.402945893231823E+08,
2461246.500000000, A.D. 2026-Jul-25 00:00:00.0000, 3.987963862249233E+09, 4.024593833800383E+09, 1.400788672239697E+08,
2461253.500000000, A.D. 2026-Aug-01 00:00:00.0000, 3.985724645373616E+09, 4.026755555140915E+09, 1.398631074214306E+08,
2461260.500000000, A.D. 2026-Aug-08 00:00:00.0000, 3.983484395951203E+09, 4.028916154330786E+09, 1.396473100463865E+08,
2461267.500000000, A.D. 2026-Aug-15 00:00:00.0000, 3.981243112841688E+09, 4.031075628962186E+09, 1.394314750729392E+08,
2461274.500000000, A.D. 2026-Aug-22 00:00:00.0000, 3.979000796764127E+09, 4.033233976814395E+09, 1.392156023547442E+08,
2461281.500000000, A.D. 2026-Aug-29 00:00:00.0000, 3.976757448826322E+09, 4.035391197415240E+09, 1.389996918894310E+08,
2461288.500000000, A.D. 2026-Sep-05 00:00:00.0000, 3.974513068816584E+09, 4.037547290877494E+09, 1.387837438810942E+08,
2461295.500000000, A.D. 2026-Sep-12 00:00:00.0000, 3.972267655712702E+09, 4.039702256506019E+09, 1.385677585796578E+08,
2461302.500000000, A.D. 2026-Sep-19 00:00:00.0000, 3.970021208534287E+09, 4.041856092719790E+09, 1.383517361951880E+08,
2461309.500000000, A.D. 2026-Sep-26 00:00:00.0000, 3.967773726679789E+09, 4.044008797355953E+09, 1.381356768896885E+08,
2461316.500000000, A.D. 2026-Oct-03 00:00:00.0000, 3.965525209996742E+09, 4.046160367905188E+09, 1.379195807867787E+08,
$$EOE